NORAD_CAT_ID,OBJECT_NAME,OBJECT_TYPE,EPOCH,MEAN_MOTION,ECCENTRICITY,INCLINATION,RA_OF_ASC_NODE,ARG_OF_PERICENTER,MEAN_ANOMALY,BSTAR,MEAN_MOTION_DOT,MEAN_MOTION_DDOT,TLE_LINE0,TLE_LINE1,TLE_LINE2,SEMIMAJOR_AXIS,PERIOD,APOGEE,PERIGEE,DECAYED
53970.0,STARLINK-4567,PAYLOAD,2023-06-18 20:12:44,15.0884681,9.71e-05,53.2172,5.2075,112.0923,248.0172,0.00034141,5.151e-05,0.0,0 STARLINK-4567,1 53970U 22125G   23169.84217756  .00005151  00000-0  34141-3 0  9995,2 53970  53.2172   5.2075 0000971 112.0923 248.0172 15.08846810 39210,6917.86,95.437,540.396,539.053,0.0
53970.0,STARLINK-4567,PAYLOAD,2023-06-18 23:23:30,15.08850275,9.63e-05,53.2174,4.6123,114.8606,245.2486,0.00060902,9.421e-05,0.0,0 STARLINK-4567,1 53970U 22125G   23169.97465849  .00009421  00000-0  60902-3 0  9995,2 53970  53.2174   4.6123 0000963 114.8606 245.2486 15.08850275 39293,6917.849,95.437,540.38,539.048,0.0
53970.0,STARLINK-4567,PAYLOAD,2023-06-19 05:45:03,15.0884819,9.04e-05,53.217,3.4236,115.0046,245.104,0.0007383,0.00011484,0.0,0 STARLINK-4567,1 53970U 22125G   23170.23962053  .00011484  00000-0  73830-3 0  9991,2 53970  53.2170   3.4236 0000904 115.0046 245.1040 15.08848190 39273,6917.855,95.437,540.346,539.095,0.0
53970.0,STARLINK-4567,PAYLOAD,2023-06-19 18:28:08,15.08844483,9.87e-05,53.2172,1.0443,103.9185,256.1917,0.00023799,3.502e-05,0.0,0 STARLINK-4567,1 53970U 22125G   23170.76954013  .00003502  00000-0  23799-3 0  9997,2 53970  53.2172   1.0443 0000987 103.9185 256.1917 15.08844483 39412,6917.867,95.437,540.414,539.049,0.0
53970.0,STARLINK-4567,PAYLOAD,2023-06-20 19:54:18,15.08843067,8.17e-05,53.217,356.2855,94.1137,265.9949,0.00021188,3.086e-05,0.0,0 STARLINK-4567,1 53970U 22125G   23171.82937841  .00003086  00000-0  21188-3 0  9992,2 53970  53.2170 356.2855 0000817  94.1137 265.9949 15.08843067 39513,6917.871,95.437,540.301,539.171,0.0
53970.0,STARLINK-4567,PAYLOAD,2023-06-21 18:09:42,15.0884184,8.36e-05,53.2172,352.1239,85.7475,274.3613,9.0524e-05,1.153e-05,0.0,0 STARLINK-4567,1 53970U 22125G   23172.75673965  .00001153  00000-0  90524-4 0  9993,2 53970  53.2172 352.1239 0000836  85.7475 274.3613 15.08841840 39719,6917.875,95.437,540.318,539.161,0.0
53970.0,STARLINK-4567,PAYLOAD,2023-06-21 19:45:05,15.08846262,8.98e-05,53.2173,351.8269,79.9913,280.1181,0.00013369,1.841e-05,0.0,0 STARLINK-4567,1 53970U 22125G   23172.82297761  .00001841  00000-0  13369-3 0  9992,2 53970  53.2173 351.8269 0000898  79.9913 280.1181 15.08846262 39661,6917.861,95.437,540.347,539.105,0.0
53970.0,STARLINK-4567,PAYLOAD,2023-06-22 19:35:52,15.08843017,8.92e-05,53.2178,347.3644,94.6887,265.4207,0.00013677,1.89e-05,0.0,0 STARLINK-4567,1 53970U 22125G   23173.81657990  .00001890  00000-0  13677-3 0  9992,2 53970  53.2178 347.3644 0000892  94.6887 265.4207 15.08843017 39874,6917.871,95.437,540.353,539.119,0.0
53970.0,STARLINK-4567,PAYLOAD,2023-06-23 21:02:02,15.08852234,9.69e-05,53.2181,342.6064,88.9875,271.1228,0.00020662,3.003e-05,0.0,0 STARLINK-4567,1 53970U 22125G   23174.87641495  .00003003  00000-0  20662-3 0  9992,2 53970  53.2181 342.6064 0000969  88.9875 271.1228 15.08852234 40038,6917.843,95.437,540.378,539.038,0.0
53970.0,STARLINK-4567,PAYLOAD,2023-06-24 17:42:03,15.08842527,9.14e-05,53.217,338.7402,85.6181,274.4916,0.0001363,1.882e-05,0.0,0 STARLINK-4567,1 53970U 22125G   23175.73754097  .00001882  00000-0  13630-3 0  9991,2 53970  53.2170 338.7402 0000914  85.6181 274.4916 15.08842527 40160,6917.873,95.437,540.37,539.105,0.0
53970.0,STARLINK-4567,PAYLOAD,2023-06-26 03:05:09,15.08844149,9.17e-05,53.2158,332.4979,75.3082,284.8012,0.00014198,1.973e-05,0.0,0 STARLINK-4567,1 53970U 22125G   23177.12858057  .00001973  00000-0  14198-3 0  9998,2 53970  53.2158 332.4979 0000917  75.3082 284.8012 15.08844149 40372,6917.868,95.437,540.367,539.098,0.0
53970.0,STARLINK-4567,PAYLOAD,2023-06-26 17:23:36,15.08868117,9.14e-05,53.217,329.822,81.7635,278.3461,0.000744,0.00011582,0.0,0 STARLINK-4567,1 53970U 22125G   23177.72473033  .00011582  00000-0  74400-3 0  9990,2 53970  53.2170 329.8220 0000914  81.7635 278.3461 15.08868117 40464,6917.794,95.436,540.292,539.027,0.0
53970.0,STARLINK-4567,PAYLOAD,2023-06-27 02:55:55,15.08846065,0.0001402,53.2167,328.0378,83.953,276.1621,-7.7313e-05,-1.518e-05,0.0,0 STARLINK-4567,1 53970U 22125G   23178.12217355 -.00001518  00000-0 -77313-4 0  9995,2 53970  53.2167 328.0378 0001402  83.9530 276.1621 15.08846065 40525,6917.862,95.437,540.697,538.757,0.0
53970.0,STARLINK-4567,PAYLOAD,2023-06-27 17:14:24,15.08825096,0.0001549,53.2178,325.3626,90.2964,269.8206,-0.00036667,-6.116e-05,0.0,0 STARLINK-4567,1 53970U 22125G   23178.71834354 -.00006116  00000-0 -36667-3 0  9999,2 53970  53.2178 325.3626 0001549  90.2964 269.8206 15.08825096 40616,6917.926,95.438,540.863,538.719,0.0
53970.0,STARLINK-4567,PAYLOAD,2023-06-28 09:08:16,15.08834598,0.0001327,53.2174,322.3889,87.8011,272.3133,-3.3027e-05,-8.13e-06,0.0,0 STARLINK-4567,1 53970U 22125G   23179.38074480 -.00000813  00000-0 -33027-4 0  9995,2 53970  53.2174 322.3889 0001327  87.8011 272.3133 15.08834598 40715,6917.897,95.438,540.68,538.844,0.0
53970.0,STARLINK-4567,PAYLOAD,2023-06-29 15:20:36,15.08843785,0.0001397,53.2166,316.7387,79.8839,280.2311,0.00038355,5.822e-05,0.0,0 STARLINK-4567,1 53970U 22125G   23180.63931018  .00005822  00000-0  38355-3 0  9995,2 53970  53.2166 316.7387 0001397  79.8839 280.2311 15.08843785 40907,6917.869,95.437,540.7,538.767,0.0
53970.0,STARLINK-4567,PAYLOAD,2023-07-01 08:40:38,15.08836929,0.0001321,53.2165,309.0073,87.8633,272.251,4.3101e-05,3.98e-06,0.0,0 STARLINK-4567,1 53970U 22125G   23182.36155191  .00000398  00000-0  43101-4 0  9996,2 53970  53.2165 309.0073 0001321  87.8633 272.2510 15.08836929 41164,6917.89,95.438,540.669,538.841,0.0
53970.0,STARLINK-4567,PAYLOAD,2023-07-02 08:31:27,15.08818603,0.0001283,53.2169,304.5457,89.2102,270.9037,-8.8999e-05,-1.703e-05,0.0,0 STARLINK-4567,1 53970U 22125G   23183.35517466 -.00001703  00000-0 -88999-4 0  9990,2 53970  53.2169 304.5457 0001283  89.2102 270.9037 15.08818603 41313,6917.946,95.439,540.698,538.923,0.0
53970.0,STARLINK-4567,PAYLOAD,2023-07-02 14:52:59,15.08826269,0.0001259,53.2165,303.3571,88.9796,271.134,-1.2939e-05,-4.94e-06,0.0,0 STARLINK-4567,1 53970U 22125G   23183.62013095 -.00000494  00000-0 -12939-4 0  9996,2 53970  53.2165 303.3571 0001259  88.9796 271.1340 15.08826269 41352,6917.922,95.438,540.658,538.916,0.0
53970.0,STARLINK-4567,PAYLOAD,2023-07-03 00:25:17,15.0883529,0.0001362,53.2168,301.5731,90.9391,269.1757,0.00015003,2.1e-05,0.0,0 STARLINK-4567,1 53970U 22125G   23184.01756694  .00002100  00000-0  15003-3 0  9997,2 53970  53.2168 301.5731 0001362  90.9391 269.1757 15.08835290 41412,6917.895,95.438,540.702,538.818,0.0
53970.0,STARLINK-4567,PAYLOAD,2023-07-03 16:19:08,15.08869073,0.0001291,53.2173,298.5991,86.5856,273.5284,0.0012415,0.00019541,0.0,0 STARLINK-4567,1 53970U 22125G   23184.67996449  .00019541  00000-0  12415-2 0  9993,2 53970  53.2173 298.5991 0001291  86.5856 273.5284 15.08869073 41510,6917.792,95.436,540.55,538.763,0.0
53970.0,STARLINK-4567,PAYLOAD,2023-07-04 00:16:04,15.08861639,0.0001254,53.2174,297.1111,77.4712,282.642,0.00049852,7.66e-05,0.0,0 STARLINK-4567,1 53970U 22125G   23185.01116142  .00007660  00000-0  49852-3 0  9991,2 53970  53.2174 297.1111 0001254  77.4712 282.6420 15.08861639 41567,6917.814,95.436,540.547,538.812,0.0
53970.0,STARLINK-4567,PAYLOAD,2023-07-05 00:06:50,15.08859632,0.0001208,53.2166,292.6526,90.9997,269.1133,0.00046505,7.125e-05,0.0,0 STARLINK-4567,1 53970U 22125G   23186.00475241  .00007125  00000-0  46505-3 0  9997,2 53970  53.2166 292.6526 0001208  90.9997 269.1133 15.08859632 41710,6917.82,95.436,540.521,538.85,0.0
53970.0,STARLINK-4567,PAYLOAD,2023-07-05 06:28:23,15.0885166,0.0001712,53.2182,291.4658,86.3395,273.7793,0.00013307,1.831e-05,0.0,0 STARLINK-4567,1 53970U 22125G   23186.26971368  .00001831  00000-0  13307-3 0  9998,2 53970  53.2182 291.4658 0001712  86.3395 273.7793 15.08851660 41752,6917.845,95.437,540.894,538.525,0.0
53970.0,STARLINK-4567,PAYLOAD,2023-07-05 14:25:19,15.08842882,0.0001315,53.2174,289.9773,90.4905,269.6237,-9.8639e-05,-1.858e-05,0.0,0 STARLINK-4567,1 53970U 22125G   23186.60091497 -.00001858  00000-0 -98639-4 0  9995,2 53970  53.2174 289.9773 0001315  90.4905 269.6237 15.08842882 41804,6917.872,95.437,540.646,538.827,0.0
53970.0,STARLINK-4567,PAYLOAD,2023-07-06 15:51:29,15.08849304,0.0001192,53.2158,285.2181,87.2548,272.8581,0.0002127,3.1e-05,0.0,0 STARLINK-4567,1 53970U 22125G   23187.66075320  .00003100  00000-0  21270-3 0  9995,2 53970  53.2158 285.2181 0001192  87.2548 272.8581 15.08849304 41969,6917.852,95.437,540.542,538.892,0.0
53970.0,STARLINK-4567,PAYLOAD,2023-07-07 10:56:06,15.08845288,0.0001223,53.2159,281.6504,84.6826,275.4306,0.00023341,3.429e-05,0.0,0 STARLINK-4567,1 53970U 22125G   23188.45563528  .00003429  00000-0  23341-3 0  9990,2 53970  53.2159 281.6504 0001223  84.6826 275.4306 15.08845288 42089,6917.864,95.437,540.575,538.883,0.0
53970.0,STARLINK-4567,PAYLOAD,2023-07-08 06:00:44,15.08843269,0.000141,53.216,278.0822,84.0912,276.024,0.00012604,1.719e-05,0.0,0 STARLINK-4567,1 53970U 22125G   23189.25051500  .00001719  00000-0  12604-3 0  9991,2 53970  53.2160 278.0822 0001410  84.0912 276.0240 15.08843269 42207,6917.87,95.437,540.711,538.76,0.0
53970.0,STARLINK-4567,PAYLOAD,2023-07-09 12:13:04,15.08831893,0.0001189,53.2178,272.4318,102.0569,258.0556,-6.0186e-05,-1.245e-05,0.0,0 STARLINK-4567,1 53970U 22125G   23190.50908472 -.00001245  00000-0 -60186-4 0  9995,2 53970  53.2178 272.4318 0001189 102.0569 258.0556 15.08831893 42396,6917.905,95.438,540.593,538.948,0.0
53970.0,STARLINK-4567,PAYLOAD,2023-07-10 04:06:55,15.08836001,9.64e-05,53.2168,269.4583,82.6465,277.4637,6.7175e-05,7.81e-06,0.0,0 STARLINK-4567,1 53970U 22125G   23191.17148030  .00000781  00000-0  67175-4 0  9992,2 53970  53.2168 269.4583 0000964  82.6465 277.4637 15.08836001 42495,6917.893,95.438,540.424,539.091,0.0
